{
  "type": "FeatureCollection",
  "features": [
    {
      "type": "Feature",
      "properties": {
        "norad_id": 33791,
        "name": "COSMOS 2251 DEB",
        "group": "cosmos-2251-debris",
        "lat": -69.06880269730758,
        "lon": -93.49032092771104,
        "alt_km": 734.6882388055183,
        "timestamp": "2025-12-12T03:50:52.810871+00:00",
        "meta_object_name": "COSMOS 2251 DEB",
        "meta_object_id": "1993-036AG",
        "meta_epoch": "2025-12-11T12:10:20.275968",
        "meta_mean_motion": 14.43114527,
        "meta_eccentricity": 0.0030544,
        "meta_inclination": 74.1753,
        "meta_ra_of_asc_node": 39.8508,
        "meta_arg_of_pericenter": 237.345,
        "meta_mean_anomaly": 226.7416,
        "meta_ephemeris_type": 0,
        "meta_classification_type": "U",
        "meta_norad_cat_id": 33791,
        "meta_element_set_no": 999,
        "meta_rev_at_epoch": 88034,
        "meta_bstar": 0.0013263828,
        "meta_mean_motion_dot": 4.454e-05,
        "meta_mean_motion_ddot": 0,
        "tle_line1": "1 33791U 93036AG  25345.50717912  .00004454  00000+0  13264-2 0  9999",
        "tle_line2": "2 33791  74.1753  39.8508 0030544 237.3450 226.7416 14.43114527880348"
      },
      "geometry": {
        "type": "Point",
        "coordinates": [
          -93.49032092771104,
          -69.06880269730758
        ]
      }
    },
    {
      "type": "Feature",
      "properties": {
        "norad_id": 33792,
        "name": "COSMOS 2251 DEB",
        "group": "cosmos-2251-debris",
        "lat": 26.448146352759583,
        "lon": 158.01027352505926,
        "alt_km": 1135.2723153991838,
        "timestamp": "2025-12-12T03:50:52.810888+00:00",
        "meta_object_name": "COSMOS 2251 DEB",
        "meta_object_id": "1993-036AH",
        "meta_epoch": "2025-12-11T11:37:32.896992",
        "meta_mean_motion": 13.45819602,
        "meta_eccentricity": 0.04270143,
        "meta_inclination": 73.9009,
        "meta_ra_of_asc_node": 347.3489,
        "meta_arg_of_pericenter": 52.234,
        "meta_mean_anomaly": 61.6009,
        "meta_ephemeris_type": 0,
        "meta_classification_type": "U",
        "meta_norad_cat_id": 33792,
        "meta_element_set_no": 999,
        "meta_rev_at_epoch": 82425,
        "meta_bstar": 0.0010932432,
        "meta_mean_motion_dot": 1.113e-05,
        "meta_mean_motion_ddot": 0,
        "tle_line1": "1 33792U 93036AH  25345.48440853  .00001113  00000+0  10932-2 0  9992",
        "tle_line2": "2 33792  73.9009 347.3489 0427014  52.2340  61.6009 13.45819602824258"
      },
      "geometry": {
        "type": "Point",
        "coordinates": [
          158.01027352505926,
          26.448146352759583
        ]
      }
    },
    {
      "type": "Feature",
      "properties": {
        "norad_id": 33793,
        "name": "COSMOS 2251 DEB",
        "group": "cosmos-2251-debris",
        "lat": 8.26830467381026,
        "lon": -31.421580966471804,
        "alt_km": 836.6754515935054,
        "timestamp": "2025-12-12T03:50:52.810911+00:00",
        "meta_object_name": "COSMOS 2251 DEB",
        "meta_object_id": "1993-036AJ",
        "meta_epoch": "2025-12-11T10:20:39.704640",
        "meta_mean_motion": 14.27716308,
        "meta_eccentricity": 0.00784681,
        "meta_inclination": 73.9807,
        "meta_ra_of_asc_node": 152.2962,
        "meta_arg_of_pericenter": 302.6552,
        "meta_mean_anomaly": 82.2698,
        "meta_ephemeris_type": 0,
        "meta_classification_type": "U",
        "meta_norad_cat_id": 33793,
        "meta_element_set_no": 999,
        "meta_rev_at_epoch": 87188,
        "meta_bstar": 0.0011674846,
        "meta_mean_motion_dot": 2.951e-05,
        "meta_mean_motion_ddot": 0,
        "tle_line1": "1 33793U 93036AJ  25345.43101510  .00002951  00000+0  11675-2 0  9998",
        "tle_line2": "2 33793  73.9807 152.2962 0078468 302.6552  82.2698 14.27716308871880"
      },
      "geometry": {
        "type": "Point",
        "coordinates": [
          -31.421580966471804,
          8.26830467381026
        ]
      }
    },
    {
      "type": "Feature",
      "properties": {
        "norad_id": 33795,
        "name": "COSMOS 2251 DEB",
        "group": "cosmos-2251-debris",
        "lat": -41.69751732634539,
        "lon": 63.147028881284726,
        "alt_km": 576.0466305004047,
        "timestamp": "2025-12-12T03:50:52.810923+00:00",
        "meta_object_name": "COSMOS 2251 DEB",
        "meta_object_id": "1993-036AL",
        "meta_epoch": "2025-12-11T09:11:54.284352",
        "meta_mean_motion": 15.05443886,
        "meta_eccentricity": 0.00316691,
        "meta_inclination": 74.0321,
        "meta_ra_of_asc_node": 79.5186,
        "meta_arg_of_pericenter": 163.3792,
        "meta_mean_anomaly": 263.1079,
        "meta_ephemeris_type": 0,
        "meta_classification_type": "U",
        "meta_norad_cat_id": 33795,
        "meta_element_set_no": 999,
        "meta_rev_at_epoch": 90001,
        "meta_bstar": 0.0026255739,
        "meta_mean_motion_dot": 0.00038301,
        "meta_mean_motion_ddot": 0,
        "tle_line1": "1 33795U 93036AL  25345.38326718  .00038301  00000+0  26256-2 0  9992",
        "tle_line2": "2 33795  74.0321  79.5186 0031669 163.3792 263.1079 15.05443886900010"
      },
      "geometry": {
        "type": "Point",
        "coordinates": [
          63.147028881284726,
          -41.69751732634539
        ]
      }
    },
    {
      "type": "Feature",
      "properties": {
        "norad_id": 33797,
        "name": "COSMOS 2251 DEB",
        "group": "cosmos-2251-debris",
        "lat": -52.61360074720179,
        "lon": -121.95837156645014,
        "alt_km": 722.292255761814,
        "timestamp": "2025-12-12T03:50:52.810934+00:00",
        "meta_object_name": "COSMOS 2251 DEB",
        "meta_object_id": "1993-036AN",
        "meta_epoch": "2025-12-11T14:17:06.436032",
        "meta_mean_motion": 14.57841143,
        "meta_eccentricity": 0.00607441,
        "meta_inclination": 74.0478,
        "meta_ra_of_asc_node": 37.1342,
        "meta_arg_of_pericenter": 125.3903,
        "meta_mean_anomaly": 24.9586,
        "meta_ephemeris_type": 0,
        "meta_classification_type": "U",
        "meta_norad_cat_id": 33797,
        "meta_element_set_no": 999,
        "meta_rev_at_epoch": 88968,
        "meta_bstar": 0.00064956369,
        "meta_mean_motion_dot": 3.022e-05,
        "meta_mean_motion_ddot": 0,
        "tle_line1": "1 33797U 93036AN  25345.59521338  .00003022  00000+0  64956-3 0  9994",
        "tle_line2": "2 33797  74.0478  37.1342 0060744 125.3903  24.9586 14.57841143889686"
      },
      "geometry": {
        "type": "Point",
        "coordinates": [
          -121.95837156645014,
          -52.61360074720179
        ]
      }
    },
    {
      "type": "Feature",
      "properties": {
        "norad_id": 33798,
        "name": "COSMOS 2251 DEB",
        "group": "cosmos-2251-debris",
        "lat": 37.175895679106226,
        "lon": -55.56010221201659,
        "alt_km": 770.1951353569402,
        "timestamp": "2025-12-12T03:50:52.810944+00:00",
        "meta_object_name": "COSMOS 2251 DEB",
        "meta_object_id": "1993-036AP",
        "meta_epoch": "2025-12-11T12:31:37.559136",
        "meta_mean_motion": 14.44612422,
        "meta_eccentricity": 0.0092491,
        "meta_inclination": 74.0279,
        "meta_ra_of_asc_node": 138.1734,
        "meta_arg_of_pericenter": 259.8059,
        "meta_mean_anomaly": 163.5379,
        "meta_ephemeris_type": 0,
        "meta_classification_type": "U",
        "meta_norad_cat_id": 33798,
        "meta_element_set_no": 999,
        "meta_rev_at_epoch": 88576,
        "meta_bstar": 0.0002871,
        "meta_mean_motion_dot": 1.018e-05,
        "meta_mean_motion_ddot": 0,
        "tle_line1": "1 33798U 93036AP  25345.52196249  .00001018  00000+0  28710-3 0  9998",
        "tle_line2": "2 33798  74.0279 138.1734 0092491 259.8059 163.5379 14.44612422885769"
      },
      "geometry": {
        "type": "Point",
        "coordinates": [
          -55.56010221201659,
          37.175895679106226
        ]
      }
    },
    {
      "type": "Feature",
      "properties": {
        "norad_id": 33799,
        "name": "COSMOS 2251 DEB",
        "group": "cosmos-2251-debris",
        "lat": -44.94845645100607,
        "lon": 66.31980445827658,
        "alt_km": 652.420647812357,
        "timestamp": "2025-12-12T03:50:52.810955+00:00",
        "meta_object_name": "COSMOS 2251 DEB",
        "meta_object_id": "1993-036AQ",
        "meta_epoch": "2025-12-11T15:22:42.254976",
        "meta_mean_motion": 14.79560131,
        "meta_eccentricity": 0.00235085,
        "meta_inclination": 74.0315,
        "meta_ra_of_asc_node": 83.9507,
        "meta_arg_of_pericenter": 155.017,
        "meta_mean_anomaly": 271.3919,
        "meta_ephemeris_type": 0,
        "meta_classification_type": "U",
        "meta_norad_cat_id": 33799,
        "meta_element_set_no": 999,
        "meta_rev_at_epoch": 88795,
        "meta_bstar": 0.0018895128,
        "meta_mean_motion_dot": 0.00014209,
        "meta_mean_motion_ddot": 0,
        "tle_line1": "1 33799U 93036AQ  25345.64076684  .00014209  00000+0  18895-2 0  9990",
        "tle_line2": "2 33799  74.0315  83.9507 0023508 155.0170 271.3919 14.79560131887958"
      },
      "geometry": {
        "type": "Point",
        "coordinates": [
          66.31980445827658,
          -44.94845645100607
        ]
      }
    }
  ]
}